2024-092F               
1 59778U 24092F   26068.91303411  .00025723  00000+0  79143-3 0  9992
2 59778  97.6418 198.4543 0008646 142.6506 217.5339 15.33614440100535
STARLINK-34657          
1 64775U 25147W   26068.91405977  .00030155  00000+0  10259-2 0  9994
2 64775  53.1570 241.8794 0001408  70.1383 289.9769 15.30205165 38786
